X;Y;ID;NOMBRE;LAZO_AMBIENTAL;NOMBRE_ABREVIADO;DIRECCION;DIRECCION_NORMALIZADA;DISTRITO;NIVEL;GESTION;MODALIDAD;TEMATICAS;ESTADO;BARRIO;COMUNA;OBSERVACIONES
-58.444003904889847;-34.56582998878384;48;ARLENE FERN - NIVEL INICIAL;1;A 1173;ARRIBEÑOS 1300;ARRIBEÑOS 1300;9;INICIAL;PRIVADA;COMUN;GESTION INTEGRAL DE RESIDUOS - BIODIVERSIDAD - HUERTA;SE POSTULO EN 2017;PALERMO;COMUNA 14;
-58.408022700410946;-34.623440236651369;227;COLEGIO ARGENTINO ARABE OMAR BIN AL JATTAB - A 1120 - SECUNDARIA;3;A -1120;HUMBERTO 1° 3046;HUMBERTO 1° 3046;6;SECUNDARIA;PRIVADA;COMUN;GESTION INTEGRAL DE RESIDUOS - BIODIVERSIDAD & ESPACIOS VERDES - GESTION DE RECUSO HIDRICO;POSTULADOS ANTES DE 2017;SAN CRISTOBAL;COMUNA 03;
-58.405519494693614;-34.595091726141618;78;CCI - SCUOLA EDMONDO DE AMICIS - NIVEL INICIAL;1;A 596;DR. NORBERTO QUIRNO COSTA 1260;QUIRNO COSTA, NORBERTO, DR. 1260;2;INICIAL;PRIVADA;COMUN;GESTION INTEGRAL DE RESIDUOS - AGUA;SE POSTULO EN 2017;RECOLETA;COMUNA 02;
-58.405519494693614;-34.595091726141618;77;CCI - SCUOLA EDMONDO DE AMICIS - NIVEL PRIMARIO;1;A 595;QUIRNO COSTA 1260;QUIRNO COSTA, NORBERTO, DR. 1260;2;PRIMARIA;PRIVADA;COMUN;GESTION INTEGRAL DE RESIDUOS - HUERTA;SE POSTULO EN 2017;RECOLETA;COMUNA 02;
-58.405955911299188;-34.641467973065438;170;CBO N° 1 DE 5;3;CBO 01;LOS PATOS 3080;LOS PATOS 3080;5;SECUNDARIA;ESTATAL;COMUN;GESTION INTEGRAL DE RESIDUOS - HUERTA ESCOLAR-BIODIVERSIDAD & ESPACIOS VERDES - GESTION DE RECURSO HIDRICO - EFICIENCIA ENERGETICA Y ENERGIAS RENOVABLES - PARTICIPACION CIUDADANA;POSTULADOS ANTES DE 2017;PARQUE PATRICIOS;COMUNA 04;
-58.465432650008644;-34.593395064919974;174;CENS 10 DE 14;2;CENS 10 FCEN;BALBOA 210;ESMERALDA 55;14;SECUNDARIA;ESTATAL;ADULTOS;GESTION INTEGRAL DE RESIDUOS;POSTULADOS ANTES DE 2017;SAN NICOLAS;COMUNA 01;
-58.488166974601164;-34.68359084623188;28;CENTRO COMUNITARIO SAN CAYETANO - NIVEL INICIAL;1;A 1266;CALLE LOS CEDROS MANZANA 3 CASA 7 Y 8 BARRIO INTA VILLA 19 CABA;;21;INICIAL;PRIVADA;COMUN;GESTION INTEGRAL DE RESIDUOS;SE POSTULO EN 2017;VILLA LUGANO;COMUNA 08;
-58.457081002329105;-34.632529803895508;184;COLEGIO NTRA. SRA. DE LA MISERICORDIA (A 58 FLORES) - NIVEL PRIMARIO - A 58;2;A - 58;AVDA. DIRECTORIO 2138;DIRECTORIO AV. 2138;11;PRIMARIA;PRIVADA;COMUN;GESTION INTEGRAL DE RESIDUOS - GESTION DE RECURSO HIDRICO;RATIFICO EN 2017;FLORES;COMUNA 07;LAZO AMBIENTAL 2015: 1
-58.408081128706009;-34.623539670428656;18;COLEGIO ARGENTINO ARABE OMAR BIN AL JATTAB - NIVEL INICIAL;2;A 1120;HUMBERTO 1° 3052;HUMBERTO 1° 3052;6;INICIAL;PRIVADA;COMUN;GESTION INTEGRAL DE RESIDUOS -  VIDA SALUDABLE;SE POSTULO EN 2017;SAN CRISTOBAL;COMUNA 03;
-58.405588626925585;-34.578193103525557;211;COLEGIO BAYARD A - 435;1;A - 435;CASTEX 3348;CASTEX 3348;1;PRIMARIA;PRIVADA;COMUN;GESTION INTEGRAL DE RESIDUOS;RATIFICO EN 2017;PALERMO;COMUNA 14;
-58.405442216150647;-34.578381155936491;49;COLEGIO BAYARD - NIVEL INICIAL;2;A 435 J;CASTEX 3348;CASTEX 3348;1;INICIAL;PRIVADA;COMUN;GESTION INTEGRAL DE RESIDUOS - HUERTA - BIODIVERSIDAD & ESPACIOS VERDES;SE POSTULO EN 2017;PALERMO;COMUNA 14;
-58.390089866981853;-34.596527619440131;79;COLEGIO MARISTA CHAMPAGNAT - NIVEL PRIMARIO;1;A 13;MONTEVIDEO 1050;MONTEVIDEO 1050;1;PRIMARIA;PRIVADA;COMUN;GESTION INTEGRAL DE RESIDUOS;SE POSTULO EN 2017;RECOLETA;COMUNA 02;
-58.456947954256968;-34.632491937288854;183;COLEGIO NTRA. SRA. DE LA MISERICORDIA (A 58 FLORES) - NIVEL INICIAL - A 58;2;A - 58;AVDA. DIRECTORIO 2138;DIRECTORIO AV. 2138;11;INICIAL;PRIVADA;COMUN;GESTION INTEGRAL DE RESIDUOS - PARTICIPACION CIUDADANA;RATIFICO EN 2017;FLORES;COMUNA 07;LAZO AMBIENTAL 2015: 1
-58.489044394801134;-34.565420588918336;38;COLEGIO NUEVOS AIRES - NIVEL PRIMARIO;1;A 982;GALVAN 3256;GALVAN 3256;15;PRIMARIA;PRIVADA;COMUN;GESTION INTEGRAL DE RESIDUOS;SE POSTULO EN 2017;VILLA URQUIZA;COMUNA 12;
-58.403200358925531;-34.580087247235227;204;COLEGIO SAN MARTIN DE TOURS  - A 637 - NIVEL INICIAL;3;A 637;AVDA. ORTIZ DE OCAMPO 2840;ORTIZ DE OCAMPO AV. 2840;1;INICIAL;PRIVADA;COMUN;GESTION INTEGRAL DE RESIDUOS - GESTION DE RECURSO HIDRICO;POSTULADOS ANTES DE 2017;PALERMO;COMUNA 14;
-58.509469347788325;-34.606443079470452;65;COLEGIO PRESENCIA VILLA DEVOTO - NIVEL SECUNDARIO;1;A 920;GUALEGUAYCHU 3152;GUALEGUAYCHU 3152;17;SECUNDARIA;PRIVADA;COMUN;GESTION INTEGRAL DE RESIDUOS - HUERTA;SE POSTULO EN 2017;VILLA DEVOTO;COMUNA 11;
-58.400108729882341;-34.586218375001458;82;COLEGIO SAN AGUSTIN - NIVEL SECUNDARIO;1;A 151;AGUERO 2320;AGUERO 2320;1;SECUNDARIA;PRIVADA;COMUN;GESTION INTEGRAL DE RESIDUOS - REUTILIZACION CREATIVA - HUERTA - AGUA;SE POSTULO EN 2017;RECOLETA;COMUNA 02;
-58.403239603548023;-34.580002795596322;52;COLEGIO SAN MARTIN DE TOURS - A 637 - NIVEL SECUNDARIO;2;A 637;ORTIZ DE OCAMPO 2840;ORTIZ DE OCAMPO AV. 2840;1;SECUNDARIA;PRIVADA;COMUN;GESTION INTEGRAL DE RESIDUOS - HUERTA;SE POSTULO EN 2017;PALERMO;COMUNA 14;
-58.449177670681081;-34.567504362295935;185;COLEGIO NTRA. SRA. DE LA MISERICORDIA (A - 57 BELGRANO) - NIVEL PRIMARIO - A 57;2;A - 57 - I NTRA SRA DE LA MISERICORDIA;AVDA. CABILDO 1333;CABILDO AV. 1333;9;PRIMARIA;PRIVADA;COMUN;GESTION INTEGRAL DE RESIDUOS;POSTULADOS ANTES DE 2017;BELGRANO;COMUNA 13;LAZO AMBIENTAL 2015: 1
-58.462756174987248;-34.565492711710142;209;BELGRANO DAY SCHOOL - A 38;2;A 38;JURAMENTO 3035;JURAMENTO 3035;10;PRIMARIA;PRIVADA;COMUN;GESTION INTEGRAL DE RESIDUOS;POSTULADOS ANTES DE 2017;BELGRANO;COMUNA 13;
-58.503932572879712;-34.573851218862039;62;DAMASA ZELAYA DE SAAVEDRA - NIVEL PRIMARIO;2;A 128;AV. ALBARELLOS 2367;ALBARELLOS AV. 2367;16;PRIMARIA;PRIVADA;COMUN;GESTION INTEGRAL DE RESIDUOS - AGUA - VIDA SALUDABLE;SE POSTULO EN 2017;VILLA PUEYRREDON;COMUNA 12;
-58.464517916115689;-34.685199578315881;34;E.B.A. 100 D.E. 21- ESEA  LOLA MORA;1;EBART 100;AV. SOLDADO DE LA FRONTERA 5155;SOLDADO DE LA FRONTERA AV. 5155;21;SECUNDARIA;ESTATAL;ARTISTICA;GESTION INTEGRAL DE LOS RESIDUOS;SE POSTULO EN 2017;VILLA LUGANO;COMUNA 08;
-58.459575908481277;-34.604985733227302;42;EC N° 17 D.E. 7;1;EC 17;FGTA. PRES. SARMIENTO 1817;FRAGATA PRES. SARMIENTO 1817;7;SECUNDARIA;ESTATAL;COMUN;GESTION INTEGRAL DE LOS RESIDUOS;SE POSTULO EN 2017;VILLA GRAL. MITRE;COMUNA 11;
-58.395415166140545;-34.623158759497784;19;EEEFL N° 22 D.E 3;2;EEEFL 22;SAN JUAN 2128;SAN JUAN AV. 2128;3;SECUNDARIA;ESTATAL;ESPECIAL;GESTION INTEGRAL DE LOS RESIDUOS - HUERTAS ESCOLARES;SE POSTULO EN 2017;SAN CRISTOBAL;COMUNA 03;
-58.513076936241575;-34.606870496400909;68;EEEFL N° 3 D.E. 17;2;EEEFL 3;AV. BEIRO 4418;BEIRO, FRANCISCO AV. 4418;17;PRIMARIA;ESTATAL;ESPECIAL;GESTION INTEGRAL DE LOS RESIDUOS - HUERTAS ESCOLARES;SE POSTULO EN 2017;VILLA DEVOTO;COMUNA 11;
-58.461784682932475;-34.564517184985725;75;EEM N° 5 D.E. 10;2;EEM 5;CRAMER 2136;CRAMER AV. 2136;10;SECUNDARIA;ESTATAL;COMUN;GESTION INTEGRAL DE LOS RESIDUOS;SE POSTULO EN 2017;BELGRANO;COMUNA 13;
-58.468040158722339;-34.613478571422213;154;EII N° 12 D.E. 12;3;EII 12;GAVILAN 1464;GAVILAN 1464;12;INICIAL;ESTATAL;ESPECIAL;GESTION INTEGRAL DE RESIDUOS - HUERTA ESCOLAR;POSTULADOS ANTES DE 2017;VILLA GRAL. MITRE;COMUNA 11;
-58.492792649422306;-34.675442360581592;32;EI N° 11 D.E. 20;1;EI 11;ZUVIRIA 6620;ZUVIRIA 6620;20;INICIAL;ESTATAL;COMUN;GESTION INTEGRAL DE LOS RESIDUOS;SE POSTULO EN 2017;VILLA LUGANO;COMUNA 08;
-58.446279058783745;-34.661426689427003;60;EI N° 12 D.E. 19;2;EI 12;PERGAMINO 3045;PERGAMINO 3045;19;INICIAL;ESTATAL;COMUN;GESTION INTEGRAL DE RESIDUOS - HUERTA ESCOLAR;SE POSTULO EN 2017;VILLA SOLDATI;COMUNA 08;
-58.492971408425653;-34.560154935635438;35;EI N° 6 D.E. 15;1;EI 6;GALVAN 3710;GALVAN 3710;15;INICIAL;ESTATAL;COMUN;GESTION INTEGRAL DE LOS RESIDUOS - HUERTAS ESCOLARES;SE POSTULO EN 2017;SAAVEDRA;COMUNA 12;
-58.440394657896626;-34.655663763051507;61;EI N° 9 D.E. 19;2;EI 9;CHILAVERT 2680;CHILAVERT, MARTINIANO, CORONEL 2680;19;INICIAL;ESTATAL;COMUN;GESTION INTEGRAL DE RESIDUOS - HUERTAS ESCOLARES;SE POSTULO EN 2017;VILLA SOLDATI;COMUNA 08;
-58.449706638322631;-34.643031540272688;12;EPC 22 D.E. 11;2;EPC 22;AVELINO DIAZ 2356;DIAZ, AVELINO 2356;11;PRIMARIA;ESTATAL;COMUN;EFICIENCIA ENERGETICA Y ENERGIAS RENOVABLES - CUIDADO DEL AGUA - GESTION INTEGRAL DE LOS RESIDUOS;SE POSTULO EN 2017;FLORES;COMUNA 07;
-58.479275613229781;-34.56701627498358;39;EPC 24 D.E.15;1;EPC 24;PEDRO RIVERA 4221;RIVERA, PEDRO I., DR. 4221;15;PRIMARIA;ESTATAL;COMUN;GESTION INTEGRAL DE LOS RESIDUOS - HUERTAS ESCOLARES;SE POSTULO EN 2017;VILLA URQUIZA;COMUNA 12;
-58.361485679855804;-34.633112399681849;92;EPC N° 01 D.E. 4;2;EPC 1;ARISTOBULO DEL VALLE 471;VALLE, ARISTOBULO DEL 471;4;PRIMARIA;ESTATAL;COMUN;GESTION INTEGRAL DE LOS RESIDUOS;SE POSTULO EN 2017;BOCA;COMUNA 04;
-58.367452038774481;-34.636929709370321;91;EPC N° 11 D.E. 4;2;EPC 11;BRANDSEN 1057;BRANDSEN 1057;4;PRIMARIA;ESTATAL;COMUN. INTESIFICADA EN ARTISTICA;GESTION INTEGRAL DE LOS RESIDUOS -  HUERTAS ESCOLARES;SE POSTULO EN 2017;BOCA;COMUNA 04;
-58.45812622412199;-34.60891736089453;7;EPC N° 11 D.E. 7;1;EPC 11;NICASIO OROÑO 1431;OROÑO, NICASIO 1431;7;PRIMARIA;ESTATAL;COMUN;GESTION INTEGRAL DE LOS RESIDUOS;SE POSTULO EN 2017;CABALLITO;COMUNA 06;
-58.415262161287252;-34.596904634336092;85;EPC N° 13 D.E. 2;2;EPC 13;JOSE ANTONIO CABRERA 3484;CABRERA, JOSE A. 3484;2;PRIMARIA;ESTATAL;COMUN;GESTION INTEGRAL DE LOS RESIDUOS - HUERTAS ESCOLARES - CONTAMINACION SONORA;SE POSTULO EN 2017;RECOLETA;COMUNA 02;
-58.481905004864778;-34.63457328397304;25;EPC N° 3 D.E. 11;1;EPC 3;MARIANO ACOSTA 45;ACOSTA, MARIANO AV. 45;11;PRIMARIA;ESTATAL;COMUN;GESTION INTEGRAL DE LOS RESIDUOS;SE POSTULO EN 2017;VELEZ SARSFIELD;COMUNA 10;
-58.364198261174231;-34.63292321481061;89;EI N° 07 D.E. 04;2;EI 7;BLANES Y PALOS;BLANES, JUAN MANUEL Y PALOS;4;INICIAL;ESTATAL;COMUN;CUIDADO DEL AGUA - GESTION INTEGRAL DE LOS RESIDUOS - HUERTAS ESCOLARES;SE POSTULO EN 2017;BOCA;COMUNA 04;
-58.402513521991352;-34.598343448883817;84;EPC N° 23 D.E. 1;1;EPC 23;LARREA 854;LARREA 854;1;PRIMARIA;ESTATAL;COMUN;;SE POSTULO EN 2017;RECOLETA;COMUNA 02;
-58.417087972122559;-34.591792929560967;57;EPC N° 4 D.E. 2;2;EPC 4;SOLER 3929;SOLER 3929;2;PRIMARIA;ESTATAL;COMUN;GESTION INTEGRAL DE LOS RESIDUOS;SE POSTULO EN 2017;PALERMO;COMUNA 14;
-58.445981041252992;-34.603176624879175;4;E.P.C. N° 6 D.E. 7;1;EPC 6;OLAYA 1525;OLAYA 1525;7;PRIMARIA;ESTATAL;COMUN;GESTION INTEGRAL DE LOS RESIDUOS;SE POSTULO EN 2017;VILLA CRESPO;COMUNA 15;
-58.409013827576445;-34.644182276537251;26;EII N° 05 D.E. 5;2;EII 5;JOSE A. CORTEJARENA 3350;CORTEJARENA, JOSE A. 3350;5;PRIMARIA;ESTATAL;ESPECIAL;GESTION INTEGRAL DE LOS RESIDUOS - HUERTAS ESCOLARES - CONTAMINACION AMBIENTAL;SE POSTULO EN 2017;PARQUE PATRICIOS;COMUNA 04;
-58.504896055532711;-34.593680115235884;67;EPC N° 2 D.E. 16;1;EPC 2;AV. SAN MARTIN 6387;SAN MARTIN AV. 6387;16;PRIMARIA;ESTATAL;COMUN;GESTION INTEGRAL DE LOS RESIDUOS;SE POSTULO EN 2017;VILLA DEVOTO;COMUNA 11;
-58.453610260127341;-34.635305716250983;13;EPC N° 24 D.E.11;1;EPC 24;LAUTARO 752;LAUTARO 752;11;PRIMARIA;ESTATAL;COMUN;GESTION INTEGRAL DE LOS RESIDUOS;SE POSTULO EN 2017;FLORES;COMUNA 07;
-58.476397050361541;-34.63742832548742;163;EPC N° 19 DE 11;1;EPC 19;JOSE BONIFACIO 3650;BONIFACIO, JOSE 3650;11;PRIMARIA;ESTATAL;COMUN;GESTION INTEGRAL DE RESIDUOS;RATIFICO EN 2017;FLORESTA;COMUNA 10;
-58.395287941233157;-34.599295964515434;112;E.N.S N° 1 D.E. 1;4;ENS  1;AVDA. CORDOBA 1951;CORDOBA AV. 1951;1;INICIAL;ESTATAL;COMUN;GESTION INTEGRAL DE RESIDUOS - PARTICIPACION CIUDADANA - VIDA SALUDABLE;POSTULADOS ANTES DE 2017;RECOLETA;COMUNA 02;LAZO AMBIENTAL 2014: 1 - LAZO AMBIENTAL 2015: 2
-58.430203565718969;-34.622318602398011;104;EPC N° 11 D.E. 8;2;EPC 11;AVDA. JUAN BAUTISTA ALBERDI 163;ALBERDI, JUAN BAUTISTA AV. 163;8;PRIMARIA;ESTATAL;COMUN;GESTION INTEGRAL DE RESIDUOS;POSTULADOS ANTES DE 2017;CABALLITO;COMUNA 06;LAZO AMBIENTAL 2015: 1
-58.49375583873433;-34.679790989692087;166;EII 20 DE 20;2;EII 20;GOLETA SANTA CRUZ 6997;GOLETA SANTA CRUZ 6997;20;INICIAL;ESTATAL;ESPECIAL;GESTION INTEGRAL DE RESIDUOS;POSTULADOS ANTES DE 2017;VILLA LUGANO;COMUNA 08;
-58.37684706333998;-34.593057631634963;86;JII 2 D.E. 1;1;JII 2;JUNCAL 690;JUNCAL 690;1;INICIAL;ESTATAL;COMUN;GESTION INTEGRAL DE LOS RESIDUOS;SE POSTULO EN 2017;RETIRO;COMUNA 01;
-58.525233302058645;-34.621753738295496;202;ESCUELA CRISTIANA EVANGELICA ARGENTINA - A  474 - INICIAL;3;A - 474;IRIGOYEN 2150;IRIGOYEN 2150;17;INICIAL;PRIVADA;COMUN;GESTION INTEGRAL DE RESIDUOS - CONSUMO RESPONSABLE;POSTULADOS ANTES DE 2017;VILLA REAL;COMUNA 10;
-58.422335225488936;-34.581548557569477;213;ESCUELA BILINGUE ARMONIA - A 1260 - NIVEL PRIMARIA;2;COL BILINGUE ARMONIA;THAMES 2472;THAMES 2472;9;PRIMARIA;PRIVADA;COMUN;GESTION INTEGRAL DE RESIDUOS;POSTULADOS ANTES DE 2017;PALERMO;COMUNA 14;
-58.525233302058645;-34.621753738295496;187;ESCUELA CRISTIANA EVANGELICA ARGENTINA - PRIMARIA A  474;3;A - 474;IRIGOYEN 2150;IRIGOYEN 2150;17;PRIMARIA;PRIVADA;COMUN;GESTION INTEGRAL DE RESIDUOS - HUERTA ESCOLAR-BIODIVERSIDAD & ESPACIOS VERDES - GESTION DE RECURSO HIDRICO - EFICIENCIA ENERGETICA Y ENERGIAS RENOVABLES;POSTULADOS ANTES DE 2017;VILLA REAL;COMUNA 10;LAZO AMBIENTAL 2015: 1
-58.468700287577768;-34.573076714807044;160;EPC N°18   D.E 10;1;EPC 18;LA PAMPA 3855;LA PAMPA 3855;10;PRIMARIA;ESTATAL;COMUN;GESTION INTEGRAL DE RESIDUOS;RATIFICO EN 2017;VILLA URQUIZA;COMUNA 12;
-58.403040790814252;-34.639301011279954;111;E.T. N° 07 D.E. 05;1;ET 7;ZAVALETA 204;ZAVALETA 204;5;SECUNDARIA;ESTATAL;TECNICA;GESTION INTEGRAL DE RESIDUOS;RATIFICO EN 2017;PARQUE PATRICIOS;COMUNA 04;LAZO AMBIENTAL 2015: 1
-58.433306338435102;-34.613022959495282;188;ESCUELA DEL PARQUE - NIVEL PRIMARIO A 1001;3;A - 1001;BOGOTA 123;BOGOTA 123;7;PRIMARIA;PRIVADA;COMUN;GESTION INTEGRAL DE RESIDUOS - HUERTA ESCOLAR - BIODIVERSIDAD & ESPACIOS VERDES - GESTION DE RECURSO HIDRICO - PARTICIPACION CIUDADANA - VIDA SALUDABLE;POSTULADOS ANTES DE 2017;CABALLITO;COMUNA 06;LAZO AMBIENTAL 2015: 1
-58.471187154674382;-34.587346045475549;97;E.I. N° 2 D.E. 14;3;E.I. 2;COMBATIENTES DE MALVINAS 3002;COMBATIENTES DE MALVINAS AV. 3002;14;INICIAL;ESTATAL;COMUN;GESTION INTEGRAL DE RESIDUOS EFICIENCIA ENERGETICA Y ENERGIAS RENOVABLES;POSTULADOS ANTES DE 2017;PARQUE CHAS;COMUNA 15;LAZO AMBIENTAL 2015: 2
-58.365730014262056;-34.629629796711036;143;EI N°11 D.E. 4;2;EI 11;AVDA. ALMTE. BROWN Y CNEL. DE MARINA TOMAS ESPORA;BROWN, ALTE. AV. Y ESPORA, TOMAS, CORONEL DE MARINA;4;INICIAL;ESTATAL;COMUN;GESTION INTEGRAL DE RESIDUOS;POSTULADOS ANTES DE 2017;BOCA;COMUNA 04;
-58.406478020741211;-34.627729318150159;17;ESCUELA INFANTIL TIEMPO DE CRECER - NIVEL INICIAL;1;A 1501;LA RIOJA 1462;LA RIOJA 1462;6;INICIAL;PRIVADA;COMUN;GESTION INTEGRAL DE RESIDUOS;SE POSTULO EN 2017;SAN CRISTOBAL;COMUNA 03;
-58.44106820931097;-34.550576258744051;224;ESCUELA ITALIANA CRISTOFORO COLOMBO - A 397 - NIVEL PRIMARIA;2;A 397;RAMSAY 2251;RAMSAY 2251;10;PRIMARIA;PRIVADA;COMUN;GESTION INTEGRAL DE RESIDUOS;POSTULADOS ANTES DE 2017;BELGRANO;COMUNA 13;
-58.44106820931097;-34.550576258744051;230;ESCUELA ITALIANA CRISTOFORO COLOMBO - A 397 - NIVEL SECUNDARIA;2;A 397;RAMSAY 2251;RAMSAY 2251;10;SECUNDARIA;PRIVADA;COMUN;GESTION INTEGRAL DE RESIDUOS;POSTULADOS ANTES DE 2017;BELGRANO;COMUNA 13;
-58.441019668973595;-34.550484849327844;73;ESCUELA ITALIANA CRISTOFORO COLOMBO - NIVEL INICIAL;1;A 397;RAMSAY 2251;RAMSAY 2251;10;INICIAL;PRIVADA;COMUN;GESTION INTEGRAL DE RESIDUOS - REUTILIZACION CREATIVA;SE POSTULO EN 2017;BELGRANO;COMUNA 13;
-58.409933357157826;-34.621086292758854;158;EPC N°15 D.E. 6;2;EPC 15;URIBURU 876;URIBURU 876;6;PRIMARIA;ESTATAL;COMUN;GESTION INTEGRAL DE RESIDUOS;POSTULADOS ANTES DE 2017;SAN CRISTOBAL;COMUNA 03;
-58.420817294140207;-34.586452335496887;124;EPC  N° 11  D.E. 9;2;EPC 11;MALABIA 2252;MALABIA 2252;9;PRIMARIA;ESTATAL;COMUN;GESTION INTEGRAL DE RESIDUOS - HUERTA ESCOLAR - EFICIENCIA ENERGETICA Y ENERGIAS RENOVABLES - PARTICIPACION CIUDADANA;RATIFICO EN 2017;PALERMO;COMUNA 14;LAZO AMBIENTAL 2015: 1
-58.467402505570895;-34.685995579060055;129;EPC N°1 D.E. 21;3;EPC 1;CAFAYATE 5115;CAFAYATE 5115;21;PRIMARIA;ESTATAL;COMUN;GESTION INTEGRAL DE RESIDUOS - HUERTA ESCOLAR - BIODIVERSIDAD & ESPACIOS VERDES - GESTION DE RECURSO HIDRICO - PARTICIPACION CIUDADANA - VIDA SALUDABLE;RATIFICO EN 2017;VILLA LUGANO;COMUNA 08;LAZO AMBIENTAL 2015: 2
-58.484130709868246;-34.570379178036447;127;EPC N°4  D.E. 15;2;EPC 4;AVDA. ALVAREZ THOMAS 3391;ALVAREZ THOMAS AV. 3391;15;PRIMARIA;ESTATAL;COMUN;GESTION INTEGRAL DE RESIDUOS;POSTULADOS ANTES DE 2017;VILLA URQUIZA;COMUNA 12;LAZO AMBIENTAL 2015: 1
-58.463538433476231;-34.633805842365952;162;EPC N°8  DE 11;3;EPC 8;VARELA 358;VARELA 358;11;PRIMARIA;ESTATAL;COMUN;GESTION INTEGRAL DE RESIDUOS - HUERTA ESCOLAR - BIODIVERSIDAD & ESPACIOS VERDES - GESTION DE RECURSO HIDRICO - PARTICIPACION CIUDADANA - VIDA SALUDABLE - CONSUMO RESPONSABLE;POSTULADOS ANTES DE 2017;FLORES;COMUNA 07;
-58.454623427979065;-34.550634889974752;197;ESCUELA ORT - NIVEL SECUNDARIO - LIBERTADOR - A 845;3;A-845;MONTAÑESES 2845;DEL LIBERTADOR AV. 6796;10;SECUNDARIA;PRIVADA;COMUN;GESTION INTEGRAL DE RESIDUOS - MOVILIDAD SUSTENTABLE - HUERTA ESCOLAR - BIODIVERSIDAD & ESPACIOS VERDES - GESTION DE RECURSO HIDRICO - EFICIENCIA ENERGETICA Y ENERGIAS RENOVABLES;POSTULADOS ANTES DE 2017;NUÑEZ;COMUNA 13;LAZO AMBIENTAL 2015: 1
-58.42916910163482;-34.609958330343481;198;ESCUELA ORT - NIVEL SECUNDARIO - YATAY - A 531;3;A - 531;YATAY 240;YATAY 240;7;SECUNDARIA;PRIVADA;COMUN;GESTION DE RECURSO HIDRICO;POSTULADOS ANTES DE 2017;ALMAGRO;COMUNA 05;LAZO AMBIENTAL 2015: 1
-58.422095749708319;-34.587357969715811;172; EEM N°7  DE 9;1;EEM 7;MALABIA 2148;MALABIA 2146;9;SECUNDARIA;ESTATAL;COMUN;GESTION INTEGRAL DE RESIDUOS;RATIFICO EN 2017;PALERMO;COMUNA 14;
-58.513380312815308;-34.606440120962333;63;ESCUELA DEL MIRADOR - JARDIN CUENTA CUENTOS - NIVEL INICIAL;1;A 889 J;FERNANDEZ DE ENCISO 3565;FERNANDEZ DE ENCISO 3565;17;INICIAL;PRIVADA;COMUN;GESTION INTEGRAL DE RESIDUOS;SE POSTULO EN 2017;VILLA DEVOTO;COMUNA 11;
-58.513295273177484;-34.606438353371928;64;ESCUELA DEL MIRADOR - NIVEL PRIMARIO;1;A 928;FERNANDEZ DE ENCISO 3565;FERNANDEZ DE ENCISO 3565;17;PRIMARIA;PRIVADA;COMUN;GESTION INTEGRAL DE RESIDUOS;SE POSTULO EN 2017;VILLA DEVOTO;COMUNA 11;
-58.513354107695456;-34.606375228024383;66;ESCUELA DEL MIRADOR - NIVEL SECUNDARIO;2;A 928;FERNANDEZ DE ENCISO 3565;FERNANDEZ DE ENCISO 3565;17;SECUNDARIA;PRIVADA;COMUN;GESTION INTEGRAL DE RESIDUOS - HUERTA - AGUA - EFICIENCIA ENERGETICA Y ENERGIAS RENOVABLES;SE POSTULO EN 2017;VILLA DEVOTO;COMUNA 11;
-58.461437041176922;-34.628307262388681;164;EPAD N°2  DE 12  ADULTOS SECTOR IV;2;EPAD 2;CARACAS 10;CARACAS 10;12;PRIMARIA;ESTATAL;ADULTOS;GESTION INTEGRAL DE RESIDUOS - HUERTA ESCOLAR - BIODIVERSIDAD & ESPACIOS VERDES - EFICIENCIA ENERGETICA Y ENERGIAS RENOVABLES - PARTICIPACION CIUDADANA - VIDA SALUDABLE - CONSUMO RESPONSABLE;POSTULADOS ANTES DE 2017;FLORES;COMUNA 07;
-58.363892509999246;-34.632880403485878;176;EEM  N°3 D.E. 4;3;EEM 3;PALOS Y JUAN MANUEL BLANES;BLANES, JUAN MANUEL Y PALOS;4;SECUNDARIA;ESTATAL;COMUN;EFICIENCIA ENERGETICA Y ENERGIAS RENOVABLES - CAMBIO CLIMATICO & MEDICION DE LA HUELLA DE CARBONO - GESTION INTEGRAL DE RESIDUOS;POSTULADOS ANTES DE 2017;BOCA;COMUNA 04;
-58.448965149575884;-34.662326361237383;175;EEM  N°2 D.E 19;3;EEM 2;MARTINEZ CASTRO 3067;MARTINEZ CASTRO 3067;19;SECUNDARIA;ESTATAL;COMUN;BIODIVERSIDAD & ESPACIOS VERDES - GESTION DE RECURSO HIDRICO - PARTICIPACION CIUDADANA - GESTION INTEGRAL DE RESIDUOS;POSTULADOS ANTES DE 2017;VILLA SOLDATI;COMUNA 08;
-58.379195360994778;-34.643479427329751;168;ET N°10 D.E. 5;3;ET 10;VIEYTES 942;VIEYTES 942;5;SECUNDARIA;ESTATAL;TECNICA;GESTION INTEGRAL DE RESIDUOS - HUERTA ESCOLAR-BIODIVERSIDAD & ESPACIOS VERDES - GESTION DE RECURSO HIDRICO - EFICIENCIA ENERGETICA Y ENERGIAS RENOVABLES - CAMBIO CLIMATICO & MEDICION DE LA HUELLA DE CARBONO - PARTICIPACION CIUDADANA - VIDA SALUDA;POSTULADOS ANTES DE 2017;BARRACAS;COMUNA 04;
-58.457377691306128;-34.558059354191045;134;E.T. N° 28  D.E. 10;4;ET 28;CUBA 2410;CUBA 2410;10;SECUNDARIA;ESTATAL;TECNICA;HUERTA ESCOLAR - GESTION INTEGRAL DE RESIDUOS - BIODIVERSIDAD & ESPACIOS VERDES - CAMBIO CLIMATICO & MEDICION DE LA HUELLA DE CARBONO - ATENCION A LA DIVERSIDAD;POSTULADOS ANTES DE 2017;BELGRANO;COMUNA 13;LAZO AMBIENTAL 2014: 2 - LAZO AMBIENTAL 2015: 3
-58.493143622919931;-34.561682595150437;137;E.T. N° 36  D.E. 15;4;ET 36;GALVAN 3710;GALVAN 3700;15;SECUNDARIA;ESTATAL;TECNICA;GESTION INTEGRAL DE RESIDUOS - HUERTA ESCOLAR - EFICIENCIA ENERGETICA Y ENERGIAS RENOVABLES - PARTICIPACION CIUDADANA;POSTULADOS ANTES DE 2017;SAAVEDRA;COMUNA 12;LAZO AMBIENTAL 2014: 1 - LAZO AMBIENTAL 2015: 3
-58.483404070875771;-34.640300677857091;169;ET 8 DE 13;3;ET 08;PIO COLLIVADINO 436;COLLIVADINO, PIO 436;13;SECUNDARIA;ESTATAL;TECNICA;HUERTA ESCOLAR - EFICIENCIA ENERGETICA Y ENERGIAS RENOVABLES - PARTICIPACION CIUDADANA - VIDA SALUDABLE - GESTION INTEGRAL DE RESIDUOS;POSTULADOS ANTES DE 2017;PARQUE AVELLANEDA;COMUNA 09;
-58.42916910163482;-34.609958330343481;220;ESCUELA TECNICA ORT A  531 - PRIMARIA;2;531;RIO DE JANEIRO 471;YATAY 240;7;PRIMARIA;PRIVADA;COMUN;GESTION INTEGRAL DE RESIDUOS;POSTULADOS ANTES DE 2017;ALMAGRO;COMUNA 05;
-58.377252069943594;-34.591920540979025;130;E.T. N°  12 D.E. 01;3;ET 12;AVDA. DEL LIBERTADOR 238;DEL LIBERTADOR AV. 238;1;SECUNDARIA;ESTATAL;TECNICA;HUERTA ESCOLAR - GESTION INTEGRAL DE RESIDUOS - BIODIVERSIDAD & ESPACIOS VERDES - EFICIENCIA ENERGETICA Y ENERGIAS RENOVABLES;POSTULADOS ANTES DE 2017;RETIRO;COMUNA 01;LAZO AMBIENTAL 2015: 1
-58.467483859866441;-34.679327587214928;33;ET. N° 13 D.E. 21;2;ET 13;CNEL. MARTINIANO CHILAVERT 5460;CHILAVERT, MARTINIANO, CORONEL 5460;21;SECUNDARIA;ESTATAL;TECNICA;CUIDADO DEL AGUA - GESTION INTEGRAL DE LOS RESIDUOS - HUERTA ESCOLAR;SE POSTULO EN 2017;VILLA LUGANO;COMUNA 08;
-58.481779405474363;-34.640092339912002;47;ET N° 17 D.E. 13;2;ET 17;LACARRA 535;LACARRA 535;13;SECUNDARIA;ESTATAL;TECNICA;GESTION INTEGRAL DE LOS RESIDUOS;SE POSTULO EN 2017;PARQUE AVELLANEDA;COMUNA 09;
-58.403404215232378;-34.618507622964806;41;ET N° 25 D.E. 6;1;ET 25;AV. JUJUY 780;JUJUY AV. 780;6;SECUNDARIA;ESTATAL;TECNICA;EFICIENCIA ENERGETICA Y ENERGIAS RENOVABLES - GESTION INTEGRAL DE LOS RESIDUOS - MOVILIDAD SUSTENTABLE;SE POSTULO EN 2017;BALVANERA;COMUNA 03;
-58.517809004117773;-34.621392873640403;8;ET N° 27 D.E. 18;1;ET 27;VIRGILIO 1980;VIRGILIO 1980;18;SECUNDARIA;ESTATAL;TECNICA;GESTION INTEGRAL DE LOS RESIDUOS;SE POSTULO EN 2017;MONTE CASTRO;COMUNA 10;
-58.416246443872886;-34.621791748775905;133;E.T. N°  29  D.E. 06;4;ET 29;AVDA. BOEDO 760;BOEDO AV. 760;6;SECUNDARIA;ESTATAL;TECNICA;GESTION INTEGRAL DE RESIDUOS EFICIENCIA ENERGETICA Y ENERGIAS RENOVABLES;POSTULADOS ANTES DE 2017;BOEDO;COMUNA 05;LAZO AMBIENTAL 2015: 2
-58.466288422133118;-34.536190406189867;135;E.T. N° 2 D.E. 10;3;ET 2;AVDA. DEL LIBERTADOR 8635;DEL LIBERTADOR AV. 8635;10;SECUNDARIA;ESTATAL;TECNICA;GESTION INTEGRAL DE RESIDUOS - HUERTA ESCOLAR - EFICIENCIA ENERGETICA Y ENERGIAS RENOVABLES - PARTICIPACION CIUDADANA;POSTULADOS ANTES DE 2017;NUÑEZ;COMUNA 13;LAZO AMBIENTAL 2015: 1
-58.359873671562674;-34.63885910169234;131;E.T. N°   31   D.E. 04;4;ET 31;AVDA. DON PEDRO DE MENDOZA 1777;DON PEDRO DE MENDOZA AV. 1777;4;SECUNDARIA;ESTATAL;TECNICA;GESTION INTEGRAL DE RESIDUOS;POSTULADOS ANTES DE 2017;BOCA;COMUNA 04;LAZO AMBIENTAL 2015: 2
-58.454738632947134;-34.583702541678953;1;ET N° 32 D.E. 14;1;ET 32;TEODORO GARCIA 3899;GARCIA, TEODORO 3899;14;SECUNDARIA;ESTATAL;TECNICA;GESTION INTEGRAL DE LOS RESIDUOS - HUERTAS ESCOLARES;SE POSTULO EN 2017;CHACARITA;COMUNA 15;
-58.473476075777164;-34.635108624632394;16;E.T.  N° 37 D.E. 11;1;ET 37;PERGAMINO 211;PERGAMINO 211;11;SECUNDARIA;ESTATAL;TECNICA;GESTION INTEGRAL DE LOS RESIDUOS;SE POSTULO EN 2017;FLORESTA;COMUNA 10;
-58.373137115915142;-34.611912085397321;70;ET N° 5 D.E. 04;1;ET 5;BOLIVAR 346;BOLIVAR 346;4;SECUNDARIA;ESTATAL;TECNICA;GESTION INTEGRAL DE LOS RESIDUOS;SE POSTULO EN 2017;MONSERRAT;COMUNA 01;
-58.454846796936003;-34.628830066845666;136;E.T. N°  05 D.E. 11;4;ET 5;AVDA. JUAN BAUTISTA ALBERDI 1845;ALBERDI, JUAN BAUTISTA AV. 1845;11;SECUNDARIA;ESTATAL;TECNICA;GESTION INTEGRAL DE RESIDUOS - HUERTA ESCOLAR;POSTULADOS ANTES DE 2017;FLORES;COMUNA 07;LAZO AMBIENTAL 2015: 2
-58.427402843177575;-34.60364682570394;186;INSTITUTO ACUARELA - NIVELES INICIAL, PRIMARIO Y POSPRIMARIO. A 1090;3;A - 1090;PRINGLES 738;PRINGLES 738;2;PRIMARIA;PRIVADA;ESPECIAL;GESTION INTEGRAL DE RESIDUOS -  HUERTA ESCOLAR;POSTULADOS ANTES DE 2017;ALMAGRO;COMUNA 05;LAZO AMBIENTAL 2015: 1
-58.434300113172959;-34.581289843465839;53;FRANCESCO FAA DI BRUNO - NIVEL SECUNDARIO;2;A 260;NICARAGUA 5668;NICARAGUA 5668;9;SECUNDARIA;PRIVADA;COMUN;GESTION INTEGRAL DE RESIDUOS - MOVILIDAD SUSTENTABLE - EFICIENCIA ENERGETICA Y ENERGIAS RENOVABLES;SE POSTULO EN 2017;PALERMO;COMUNA 14;
-58.467073716803228;-34.67667248744241;167;EPC  N°  19 DE 21;3;EPC 19;POLA Y JOSE BARROS PAZOS 5250;POLA Y BARROS PAZOS, JOSE;21;PRIMARIA;ESTATAL;COMUN;GESTION INTEGRAL DE RESIDUOS - HUERTA ESCOLAR;POSTULADOS ANTES DE 2017;VILLA LUGANO;COMUNA 08;
-58.470651995781871;-34.552035966577023;219;INSTITUCION LA ALDEA A  848 - PRIMARIA;2;A-848;NUÑZ 2776;NUÑEZ 2776;10;PRIMARIA;PRIVADA;COMUN;GESTION INTEGRAL DE RESIDUOS;POSTULADOS ANTES DE 2017;NUÑEZ;COMUNA 13;
-58.481918661697485;-34.629499947850796;14;INSTITUTO ADELIA MARIA HARILAOS DE OLMOS - NIVEL SECUNDARIO;1;A 516;BAHIA BLANCA 363;BAHIA BLANCA 363;12;SECUNDARIA;PRIVADA;COMUN;GESTION INTEGRAL DE RESIDUOS;SE POSTULO EN 2017;FLORESTA;COMUNA 10;
-58.46387638164169;-34.631813693690987;203;INSTITUTO ANA MARIA JANER -  INICIAL - A1;2;A1;AVDA. JUAN BAUTISTA ALBERDI 2555;VARELA 182;11;INICIAL;PRIVADA;COMUN;GESTION INTEGRAL DE RESIDUOS;POSTULADOS ANTES DE 2017;FLORES;COMUNA 07;
-58.450285262308157;-34.62437023158283;6;INSTITUTO ARGENTINO EXCELSIOR- NIVEL SECUNDARIO;1;A 4;AV. RIVADAVIA 6028;RIVADAVIA AV. 6028;8;SECUNDARIA;PRIVADA;COMUN;GESTION INTEGRAL DE RESIDUOS;SE POSTULO EN 2017;CABALLITO;COMUNA 06;
-58.46387638164169;-34.631813693690987;235;INSTITUTO ANA MARIA JANER - SECUNDARIA - A1;2;A1;AVDA. JUAN BAUTISTA ALBERDI 2555;ALBERDI, JUAN BAUTISTA AV. 2555;11;SECUNDARIA;PRIVADA;COMUN;GESTION INTEGRAL DE RESIDUOS;POSTULADOS ANTES DE 2017;FLORES;COMUNA 07;
-58.46387638164169;-34.631813693690987;214;INSTITUTO ANA MARIA JANER - PRIMARIA -A1;2;A1;AVDA. JUAN BAUTISTA ALBERDI 2555;ALBERDI, JUAN BAUTISTA AV. 2595;11;PRIMARIA;PRIVADA;COMUN;GESTION INTEGRAL DE RESIDUOS;POSTULADOS ANTES DE 2017;FLORES;COMUNA 07;
-58.470360823710507;-34.587571656331967;46;INSTITUTO CAROLINA ESTRADA DE MARTINEZ - NIVEL PRIMARIO;2;A 243;AV DEL CAMPO 1653;DEL CAMPO AV. 1653;14;PRIMARIA;PRIVADA;COMUN;GESTION INTEGRAL DE RESIDUOS;SE POSTULO EN 2017;VILLA ORTUZAR;COMUNA 15;
-58.438200967614208;-34.662962413024459;58;INSTITUTO CRISTO OBRERO - NIVEL SECUNDARIO;2;A 353;LAFUENTE 3242;LAFUENTE 3242;19;SECUNDARIA;SOCIAL;COMUN;GESTION INTEGRAL DE RESIDUOS - REUTILIZACION CREATIVA (ECO LADRILLOS);SE POSTULO EN 2017;VILLA SOLDATI;COMUNA 08;
-58.473061407055674;-34.578768309156331;45;INSTITUTO EDUCACIONAL DUAYEN - NIVEL INICIAL;2;A 990;BALIVIAN 2162;BALLIVIAN 2162;15;INICIAL;PRIVADA;COMUN;GESTION INTEGRAL DE RESIDUOS - REUTILIZACION CREATIVA - HUERTA;SE POSTULO EN 2017;VILLA ORTUZAR;COMUNA 15;
-58.476262865786403;-34.589827734509143;206;INSTITUTO EDUCACIONAL SANTA TERESITA A 622;2;A 622;QUIROS 2941;QUIROS 2941;14;INICIAL;PRIVADA;COMUN;GESTION INTEGRAL DE RESIDUOS;POSTULADOS ANTES DE 2017;PARQUE CHAS;COMUNA 15;
-58.489082070435884;-34.632097349824782;24;INSTITUTO ESPIRITU SANTO - NIVEL SECUNDARIO;1;A 16;AVELLANEDA 4455;AVELLANEDA 4455;18;SECUNDARIA;PRIVADA;COMUN;GESTION INTEGRAL DE RESIDUOS;SE POSTULO EN 2017;VELEZ SARSFIELD;COMUNA 10;
-58.488920632638333;-34.631992817800288;23;INSTITUTO ESPIRITU SANTO - NIVEL PRIMARIO;1;A 16;AVELLANEDA 4455;AVELLANEDA 4455;18;PRIMARIA;PRIVADA;COMUN;GESTION INTEGRAL DE RESIUDOS - HUERTA;SE POSTULO EN 2017;VELEZ SARSFIELD;COMUNA 10;
-58.489169340949481;-34.632174854604919;22;INSTITUTO ESPIRITU SANTO - NIVEL INICIAL;1;A 16;AVELLANEDA 4455;AVELLANEDA 4455;18;INICIAL;PRIVADA;COMUN;GESTION INTEGRAL DE RESIDUOS;SE POSTULO EN 2017;VELEZ SARSFIELD;COMUNA 10;
-58.476262865786403;-34.589827734509143;216;INSTITUTO EDUCACIONAL SANTA TERESITA  A 622 DE 14 - NIVEL INICIAL;2;A 622;QUIROS 2941;QUIROS 2941;14;PRIMARIA;PRIVADA;COMUN;GESTION INTEGRAL DE RESIDUOS AGUA, PARTICIPACION CIUDADANA;POSTULADOS ANTES DE 2017;PARQUE CHAS;COMUNA 15;
-58.470441477241266;-34.587508550102477;44;INSTITUTO CAROLINA ESTRADA DE MARTINEZ - NIVEL INICIAL;1;A 243;AV DEL CAMPO 1653;DEL CAMPO AV. 1653;14;INICIAL;PRIVADA;COMUN;GESTION INTEGRAL DE RESIDUOS;SE POSTULO EN 2017;VILLA ORTUZAR;COMUNA 15;
-58.43361888951145;-34.592766072874845;3;INSTITUTO GENESIS - POSTPRIMARIA;2;A 856;LERMA 660;LERMA 660;9;POST PRIMARIA;PRIVADA;ESPECIAL;GESTION INTEGRAL DE RESIDUOS - HUERTA;SE POSTULO EN 2017;VILLA CRESPO;COMUNA 15;
-58.444536976108253;-34.562292605446117;217;INSTITUTO IADAL - INSTITUTO ARGENTINO DE LA AUDICION Y EL LENGUAJE A 511 - ED. ESPECIAL;3;A511;AVDA. LUIS M. CAMPOS 1582;CAMPOS, LUIS M. AV. 1582;9;PRIMARIA;PRIVADA;ESPECIAL;HUERTA ESCOLAR - GESTION INTEGRAL DE RESIDUOS;POSTULADOS ANTES DE 2017;BELGRANO;COMUNA 13;
-58.454816414570544;-34.626108298879494;11;INSTITUTO INMACULADA CONCEPCION DE NUESTRA SEÑORA DE LOURDES - NIVEL SECUNDARIO;2;A 268;RIVADAVIA 6270;RIVADAVIA AV. 6270;11;SECUNDARIA;PRIVADA;COMUN;GESTION INTEGRAL DE RESIDUOS - AGUA - EFICIENCIA ENERGETICA Y ENERGIAS RENOVABLES - PARTICIPACION CIUDADANA;SE POSTULO EN 2017;FLORES;COMUNA 07;
-58.481918661697485;-34.629499947850796;15;INSTITUTO LA CANDELARIA - NIVEL SECUNDARIO;2;A 481;BAHIA BLANCA 363;BAHIA BLANCA 363;12;SECUNDARIA;PRIVADA;COMUN;GESTION INTEGRAL DE RESIDUOS - HUERTA - ENERGIAS RENOVABLES;SE POSTULO EN 2017;FLORESTA;COMUNA 10;
-58.492747487657894;-34.588216007664073;43;INSTITUTO NTRA. SRA. DE LA UNIDAD - NIVEL SECUNDARIO;2;A 297;NUEVA YORK 2467;NUEVA YORK 2467;16;SECUNDARIA;PRIVADA;COMUN;GESTION INTEGRAL DE RESIDUOS - HUERTA - EFICIENCIA ENERGETICA Y ENERGIAS RENOVABLES - PARTICIPACION CIUDADANA - VIDA SALUDABLE;SE POSTULO EN 2017;AGRONOMIA;COMUNA 15;
-58.473113683209171;-34.562364146379252;36;INSTITUTO NUESTRA SEÑORA DEL CARMEN - NIVEL SECUNDARIO;1;A 304;ROQUE PEREZ 2786;PEREZ, ROQUE 2786;10;SECUNDARIA;PRIVADA;COMUN;GESTION INTEGRAL DE RESIDUOS;SE POSTULO EN 2017;COGHLAN;COMUNA 12;
-58.412935991039497;-34.594280962574175;76;INSTITUTO NUEVO GUIDO SPANO - NIVEL INICIAL;1;A 1505;BILLINGHURST 1353;BILLINGHURST 1353;2;INICIAL;PRIVADA;COMUN;GESTION INTEGRAL DE REISUDUOS - HUERTA;SE POSTULO EN 2017;RECOLETA;COMUNA 02;
-58.413304971049392;-34.594088837087334;80;INSTITUTO NUEVO GUIDO SPANO - NIVEL PRIMARIO;1;A 1505;BILLINGHURST 1354;BILLINGHURST 1354;2;PRIMARIA;PRIVADA;COMUN;GESTION INTEGRAL DE RESIDUOS - HUERTA;SE POSTULO EN 2017;RECOLETA;COMUNA 02;
-58.412922136410756;-34.594262766557577;81;INSTITUTO NUEVO GUIDO SPANO - NIVEL SECUNDARIO;1;A 1505;BILLINGHURST 1355;BILLINGHURST 1355;2;SECUNDARIA;PRIVADA;COMUN;GESTION INTEGRAL DE RESIDUOS - HUERTA Y COMPOST;SE POSTULO EN 2017;RECOLETA;COMUNA 02;
-58.460390268745911;-34.567821728430047;215;INSTITUTO PATROCINIO DE SAN JOSE A 132;1;A- 132;CONESA 1846;CONESA 1846;10;PRIMARIA;PRIVADA;COMUN;GESTION INTEGRAL DE RESIDUOS;RATIFICO EN 2017;BELGRANO;COMUNA 13;
-58.427610345811829;-34.615142413188956;181;INSTITUTO SAGRADO CORAZON - NIVEL INICIAL - A 111;2;A - 111;HIPOLITO YRIGOYEN 4350;YRIGOYEN, HIPOLITO AV. 4350;8;INICIAL;PRIVADA;COMUN;GESTION INTEGRAL DE RESIDUOS - MOVILIDAD SUSTENTABLE-HUERTA ESCOLAR - BIODIVERSIDAD & ESPACIOS VERDES - GESTION DE RECURSO HIDRICO - PARTICIPACION CIUDADANA -VIDA SALUDABLE;RATIFICO EN 2017;ALMAGRO;COMUNA 05;LAZO AMBIENTAL 2015: 1
-58.427909089400245;-34.615173147733771;178;INSTITUTO SAGRADO CORAZON;1;A - 111;HIPOLITO YRIGOYEN 4350;YRIGOYEN, HIPOLITO AV. 4350;8;PRIMARIA;PRIVADA;COMUN;GESTION INTEGRAL DE RESIDUOS;RATIFICO EN 2017;ALMAGRO;COMUNA 05;LAZO AMBIENTAL 2015: 1
-58.427909089400245;-34.615173147733771;194;INSTITUTO SAGRADO CORAZON - NIVEL SECUNDARIO - A 111;2;A - 111;HIPOLITO YRIGOYEN 4350;YRIGOYEN, HIPOLITO AV. 4350;8;SECUNDARIA;PRIVADA;COMUN;GESTION INTEGRAL DE RESIDUOS;POSTULADOS ANTES DE 2017;ALMAGRO;COMUNA 05;LAZO AMBIENTAL 2015: 1
-58.443044732150042;-34.626407451143557;5;INSTITUTO SAINT EXUPERY - NIVEL INICIAL;1;A 939;EMILIO MITRE 378;MITRE, EMILIO 378;8;INICIAL;PRIVADA;COMUN;GESTION INTEGRAL DE RESIDUOS;SE POSTULO EN 2017;CABALLITO;COMUNA 06;
-58.442574850412349;-34.627887351845565;193;INSTITUTO SAINT EXUPERY - NIVEL PRIMARIO A 939;3;A - 939;JOSE BONIFACIO 1075;BONIFACIO, JOSE 1075;8;PRIMARIA;PRIVADA;COMUN;GESTION INTEGRAL DE RESIDUOS - HUERTA ESCOLAR - BIODIVERSIDAD & ESPACIOS VERDES - CAMBIO CLIMATICO & MEDICION DE LA HUELLA DE CARBONO - PARTICIPACION CIUDADANA - VIDA SALUDABLE;POSTULADOS ANTES DE 2017;CABALLITO;COMUNA 06;LAZO AMBIENTAL 2015: 1
-58.442574850412349;-34.627887351845565;195;INSTITUTO SAINT EXUPERY - NIVEL SECUNDARIO - A 939;1;A - 939;JOSE BONIFACIO 1075;BONIFACIO, JOSE 1075;8;SECUNDARIA;PRIVADA;COMUN;GESTION INTEGRAL DE RESIDUOS;RATIFICO EN 2017;CABALLITO;COMUNA 06;LAZO AMBIENTAL 2015: 1
-58.449383293103438;-34.546421865901024;232;INSTITUTO RIVER PLATE- NIVEL SECUNDARIO;2;A807;AVDA. PTE. FIGUEROA ALCORTA 7597;FIGUEROA ALCORTA, PRES. AV. 7597;10;SECUNDARIA;PRIVADA;COMUN;GESTION INTEGRAL DE RESIDUOS;POSTULADOS ANTES DE 2017;BELGRANO;COMUNA 13;
-58.454812040304823;-34.626238105833501;9;INSTITUTO INMACULADA CONCEPCION DE NUESTRA SEÑORA DE LOURDES - NIVEL INICIAL;2;A 268;RIVADAVIA 6270;RIVADAVIA AV. 6270;11;INICIAL;PRIVADA;COMUN;GESTION INTEGRAL DE RESIDUOS;SE POSTULO EN 2017;FLORES;COMUNA 07;
-58.454947268815147;-34.62616419649374;10;INSTITUTO INMACULADA CONCEPCION DE NUESTRA SEÑORA DE LOURDES - NIVEL PRIMARIO;2;A 268;RIVADAVIA 6270;RIVADAVIA AV. 6270;11;PRIMARIA;PRIVADA;COMUN;GESTION INTEGRAL DE RESIDUOS - AGUA (CUENCA MATANZA RIACHUELO);SE POSTULO EN 2017;FLORES;COMUNA 07;
-58.415473773993497;-34.636831898531902;21;INSTITUTO SAN BARTOLOME - NIVEL PRIMARIO;2;A 421;AV CHICLANA 3659;CHICLANA AV. 3659;6;PRIMARIA;PRIVADA;COMUN;GESTION INTEGRAL DE RESIDUOS - REUTILIZACION CREATIVA (JUGUETES);SE POSTULO EN 2017;BOEDO;COMUNA 05;
-58.456929616626347;-34.566913466938225;74;INSTITUTO SAN CAYETANO - NIVEL PRIMARIO;2;A 830;MOLDES 1764;MOLDES 1764;10;PRIMARIA;PRIVADA;COMUN;GESTION INTEGRAL DE RESIDUOS;SE POSTULO EN 2017;BELGRANO;COMUNA 13;
-58.518112028372244;-34.65752099665962;27;INSTITUTO SAN COSME Y SAN DAMIAN - NIVEL INICIAL;1;A 450J;MOLINA 1740;MOLINA 1740;20;INICIAL;PRIVADA;COMUN;GESTION INTEGRAL DE RESIDUOS - REUTILIZACION CREATIVA;SE POSTULO EN 2017;MATADEROS;COMUNA 09;
-58.403388534098674;-34.577905003632225;51;INSTITUTO SAN MARTIN DE TOURS -  NIVEL PRIMARIO;2;A 477;FIGUEROA ALCORTA 3380;FIGUEROA ALCORTA, PRES. AV. 3380;1;PRIMARIA;PRIVADA;COMUN;REUTILIZACION DE MATERIALES DE DESCARTE;SE POSTULO EN 2017;PALERMO;COMUNA 14;
-58.479346475022901;-34.565269485754477;37;INSTITUTO SAN PATRICIO - NIVEL PRIMARIO;2;A 561;PLAZA 2838;PLAZA 2838;15;PRIMARIA;PRIVADA;COMUN;GESTION INTEGRAL DE RESIDUOS - REUTILIZACION CREATIVA;SE POSTULO EN 2017;VILLA URQUIZA;COMUNA 12;
-58.440424692719922;-34.571120312096944;218;INSTITUTO SANTA MARIA DE LUJAN - A 495;1;A-495;3 DE FEBRERO 760;3 DE FEBRERO 760;9;PRIMARIA;PRIVADA;COMUN;GESTION INTEGRAL DE RESIDUOS;RATIFICO EN 2017;PALERMO;COMUNA 14;
-58.44052929933364;-34.571165403504025;229;INSTITUTO SANTA MARIA DE LUJAN - A 495;1;A-495;3 DE FEBRERO 760;3 DE FEBRERO 760;9;SECUNDARIA;PRIVADA;COMUN;GESTION INTEGRAL DE RESIDUOS;RATIFICO EN 2017;PALERMO;COMUNA 14;
-58.446068048578319;-34.556589400808484;199;INSTITUTO SAN ROMAN - NIVEL SECUNDARIO - A 253;3;A-253;MIGUELETES 2039;MIGUELETES 2040;10;SECUNDARIA;PRIVADA;COMUN;GESTION INTEGRAL DE RESIDUOS - EFICIENCIA ENERGETICA Y ENERGIAS RENOVABLES - PARTICIPACION CIUDADANA - APRENDIZAJE EN SERVICIO;POSTULADOS ANTES DE 2017;BELGRANO;COMUNA 13;LAZO AMBIENTAL 2015: 1
-58.44063606989976;-34.571269990730578;201;INSTITUTO SANTA MARIA DE LUJAN - A 495;2;A-495;3 DE FEBRERO 760;3 DE FEBRERO 760;9;INICIAL;PRIVADA;COMUN;GESTION INTEGRAL DE RESIDUOS - HUERTA ESCOLAR - VIDA SALUDABLE;RATIFICO EN 2017;PALERMO;COMUNA 14;
-58.446220625294892;-34.556414540307287;191;INSTITUTO SAN ROMAN - NIVEL PRIMARIO -  A 253;3;A-253;MIGUELETES 2039;MIGUELETES 2039;10;PRIMARIA;PRIVADA;COMUN;GESTION INTEGRAL DE RESIDUOS - MOVILIDAD SUSTENTABLE-GESTION DE RECURSO HIDRICO - EFICIENCIA ENERGETICA Y ENERGIAS RENOVABLES - PARTICIPACION CIUDADANA - VIDA SALUDABLE;POSTULADOS ANTES DE 2017;BELGRANO;COMUNA 13;LAZO AMBIENTAL 2015: 2
-58.445858798391754;-34.556834566361999;182;INSTITUTO SAN ROMAN - NIVEL INICIAL - A  253;3;A-253;MIGUELETES 2039;MIGUELETES 2039;10;INICIAL;PRIVADA;COMUN;GESTION INTEGRAL DE RESIDUOS - HUERTA ESCOLAR-BIODIVERSIDAD & ESPACIOS VERDES - GESTION DE RECURSO HIDRICO - VIDA SALUDABLE;POSTULADOS ANTES DE 2017;BELGRANO;COMUNA 13;LAZO AMBIENTAL 2015: 2
-58.40261802029675;-34.601212033700108;40;INSTITUTO SUPERIOR FACULTAR;1;A 1493;VIAMONTE 2518;VIAMONTE 2518;2;SUPERIOR;PRIVADA;COMUN;GESTION INTEGRAL DE RESIDUOS;SE POSTULO EN 2017;BALVANERA;COMUNA 03;
-58.415184320828018;-34.609306194150314;208;INSTITUTO TIERRA SANTA - A 407 - INICIAL;3;A - 407;BARTOLOME MITRE 3443;SANCHEZ DE BUSTAMANTE 124;2;INICIAL;PRIVADA;COMUN;GESTION INTEGRAL DE RESIDUOS;POSTULADOS ANTES DE 2017;ALMAGRO;COMUNA 05;
-58.415184320828018;-34.609306194150314;231;INSTITUTO TIERRA SANTA - A 407 - SECUNDARIA;2;A 407;BARTOLOME MITRE 3443;SANCHEZ DE BUSTAMANTE 124;2;SECUNDARIA;PRIVADA;COMUN;GESTION INTEGRAL DE RESIDUOS;POSTULADOS ANTES DE 2017;ALMAGRO;COMUNA 05;
-58.489943431983818;-34.591281838979803;221;INST. PARROQUIAL NTRA. SRA. DE LA UNIDAD - A 297 - PRIMARIA;2;A 297;NAVARRO 2462;NAVARRO 2462;16;PRIMARIA;PRIVADA;COMUN;GESTION INTEGRAL DE RESIDUOS;POSTULADOS ANTES DE 2017;AGRONOMIA;COMUNA 15;
-58.478973908331312;-34.565731678822331;177;INST. SAN PATRICIO;2;A - 561;NAHUEL HUAPI 4140;NAHUEL HUAPI 4140;15;INICIAL;PRIVADA;COMUN;GESTION INTEGRAL DE RESIDUOS;POSTULADOS ANTES DE 2017;VILLA URQUIZA;COMUNA 12;LAZO AMBIENTAL 2015: 1
-58.419245668531602;-34.564984545940192;54;JARDIN DE INFANCIA MITRE N° 86 D.E. 9;1;JIC;AV DORREGO 3723;DORREGO AV. 3723;9;INICIAL;ESTATAL;COMUN;GESTION INTEGRAL DE LOS RESIDUOS - REUTILIZACION CREATIVA;SE POSTULO EN 2017;PALERMO;COMUNA 14;
-58.449914636896004;-34.616705976878094;179;INST. TRASO;3;A-1465;PAYSANDU 564;PAYSANDU 562;7;PRIMARIA;PRIVADA;ESPECIAL;GESTION INTEGRAL DE RESIDUOS - HUERTAS ESCOLARES - AGUA - PARTICIPACION CIUDADANA;POSTULADOS ANTES DE 2017;CABALLITO;COMUNA 06;LAZO AMBIENTAL 2015: 2
-58.432857506188306;-34.608581544492047;115;JII N°  01  D.E. 07;4;JII 1;EDUARDO ACEVEDO 609;ACEVEDO, EDUARDO 609;7;INICIAL;ESTATAL;COMUN;HUERTA ESCOLAR - GESTION DE RECURSO HIDRICO - GESTION INTEGRAL DE RESIDUOS;POSTULADOS ANTES DE 2017;CABALLITO;COMUNA 06;LAZO AMBIENTAL 2014: 1 - LAZO AMBIENTAL 2015: 3
-58.450435647958543;-34.662796543322955;157;JII N° 10 DE 19;2;JII 10;JOSE BARROS PAZOS 3610;BARROS PAZOS, JOSE 3610;19;INICIAL;ESTATAL;COMUN;GESTION INTEGRAL DE RESIDUOS/ HUERTAS ESCOLARES;POSTULADOS ANTES DE 2017;VILLA SOLDATI;COMUNA 08;
-58.434682924549087;-34.580493285841655;50;JARDIN DE INFANTES KARIBU - NIVEL INICIAL;2;ET 421R;NICARAGUA 5729;NICARAGUA 5729;9;INICIAL;PRIVADA;COMUN;GESTION INTEGRAL DE RESIDUOS - HUERTA - REUTILIZACION CREATIVA (CONFECCION DE CESTOS);SE POSTULO EN 2017;PALERMO;COMUNA 14;
-58.386820241213051;-34.603810647853393;71;JARDIN MATERNO INFANTIL - COLEGIO PUBLICO DE ABOGADOS DE LA CAPITAL FEDERAL - NIVEL INICIAL;1;A 1382;URUGUAY 412;URUGUAY AV. 412;1;INICIAL;PRIVADA;COMUN;GESTION INTEGRAL DE RESIDUOS;SE POSTULO EN 2017;SAN NICOLAS;COMUNA 01;
-58.480299438419614;-34.629693528235372;151;JII N° 1 D.E. 12;2;JII 1;JOAQUIN V. GONZALEZ 307;GONZALEZ, JOAQUIN V. 307;12;INICIAL;ESTATAL;COMUN;GESTION INTREGAL DE RESIDUOS;POSTULADOS ANTES DE 2017;FLORESTA;COMUNA 10;
-58.431841444928644;-34.653638707662097;156;JIC 2 DE 19;3;JIC 2;CHARRUA 2850;CHARRUA 2850;19;INICIAL;ESTATAL;COMUN;GESTION INTEGRAL DE RESIDUO VIDA SALUDABLE AGUA;POSTULADOS ANTES DE 2017;NUEVA POMPEYA;COMUNA 04;
-58.452321146144456;-34.570120308563958;149;JIC 9 DE 9;3;JIC 9;MOLDES 1220;MOLDES 1220;9;INICIAL;ESTATAL;COMUN;GESTION INTEGRAL DE RESIDUOS - HUERTA ESCOLAR - GESTION DE RECURSO HIDRICO - PARTICIPACION CIUDADANA - VIDA SALUDABLE;POSTULADOS ANTES DE 2017;COLEGIALES;COMUNA 13;
-58.377191424584289;-34.618094189218311;113;J.I.C. N°  03  D.E. 03;4;JIC 3;PIEDRAS 860;PIEDRAS 860;3;INICIAL;ESTATAL;COMUN;GESTION INTEGRAL DE RESIDUOS HUERTAS ESCOLARES  EFICIENCIA ENERGETICA Y ENERGIAS RENOVABLES VIDA SALUDABLE;POSTULADOS ANTES DE 2017;SAN TELMO;COMUNA 01;LAZO AMBIENTAL 2015: 2
-58.452821436084719;-34.609123589407957;116;J.I.C. N°  04 D.E. 07;3;JIC 4;ESPINOSA 1243;ESPINOSA 1243;7;INICIAL;ESTATAL;COMUN;GESTION INTEGRAL DE RESIDUOS PARTICIPACION CIUDADANA VIDA SALUDABLE HUERTA;POSTULADOS ANTES DE 2017;CABALLITO;COMUNA 06;LAZO AMBIENTAL 2015: 1
-58.491523848105956;-34.672672737365431;30;JIC N° 12 D.E. 20;1;JIC 12;ZUVIRIA 6340;ZUVIRIA 6200;20;INICIAL;ESTATAL;COMUN;GESTION INTEGRAL DE LOS RESIDUOS - CUIDADO DEL AGUA;SE POSTULO EN 2017;VILLA LUGANO;COMUNA 08;
-58.362571096832134;-34.627345063381739;88;JIC N° 2 D.E. 04;2;JIC N° 2;BRAUN MENENDEZ 260;BRAUN MENENDEZ, EDUARDO, DR. 260;4;INICIAL;ESTATAL;COMUN;CUIDADO DEL AGUA - GESTION INTEGRAL DE LOS RESIDUOS;SE POSTULO EN 2017;BOCA;COMUNA 04;
-58.463674767461775;-34.688984515633848;29;JIC N° 3 D.E. 21;1;JIC 3;BERON DE ASTRADA 5920;BERON DE ASTRADA 5920;21;INICIAL;ESTATAL;COMUN;GESTION INTEGRAL DE LOS RESIDUOS;SE POSTULO EN 2017;VILLA LUGANO;COMUNA 08;
-58.457561972028543;-34.645929997510734;150;J.I.C  N° 2 D.E. 11;3;JIC 2;AVDA. SAN PEDRITO 1425;SAN PEDRITO 1425;11;INICIAL;ESTATAL;COMUN;GESTION INTEGRAL DE RESIDUOS - HUERTA ESCOLAR - VIDA SALUDABLE;POSTULADOS ANTES DE 2017;FLORES;COMUNA 07;
-58.471456667079472;-34.618854889102344;152;J.I.C. N° 4  D.E. 12;3;JIC 4;AVDA. GAONA 3299;GAONA AV. 3299;12;INICIAL;ESTATAL;COMUN;GESTION INTEGRAL DE RESIDUOS - MOVILIDAD SUSTENTABLE - HUERTA ESCOLAR - BIODIVERSIDAD & ESPACIOS VERDES - VIDA SALUDABLE;POSTULADOS ANTES DE 2017;VILLA GRAL. MITRE;COMUNA 11;
-58.523912728504456;-34.606367208908303;123;JII N° 03  D.E. 17;4;JII 3;AVDA. SALVADOR MARIA DEL CARRIL 4935;CARRIL, SALVADOR MARIA DEL AV. 4935;17;INICIAL;ESTATAL;COMUN;GESTION INTEGRAL DE RESIDUOS - HUERTA ESCOLAR - ENERGETICA Y ENERGIAS RENOVABLES;POSTULADOS ANTES DE 2017;VILLA DEVOTO;COMUNA 11;LAZO AMBIENTAL 2014: 1 - LAZO AMBIENTAL 2015: 2
-58.479528115462571;-34.567331890100284;98;E.I. N° 8 D.E.15;2;EI 8;PEDRO IGNACIO RIVERA 4223;RIVERA, PEDRO I., DR. 4273;15;INICIAL;ESTATAL;COMUN;GESTION INTEGRAL DE RESIDUOS;POSTULADOS ANTES DE 2017;VILLA URQUIZA;COMUNA 12;LAZO AMBIENTAL 2014: 1
-58.367521045803663;-34.63701714041143;142;JII 4 D.E. 4;3;JII 4;HERNANDARIAS 850;HERNANDARIAS 850;4;INICIAL;ESTATAL;COMUN;GESTION INTEGRAL DE RESIDUOS - BIODIVERSIDAD & ESPACIOS VERDES;POSTULADOS ANTES DE 2017;BOCA;COMUNA 04;
-58.434036968450208;-34.564493115065247;118;J.I.I. N°  05 D.E. 09;3;JII 5;AVDA. DEL LIBERTADOR 4777;DEL LIBERTADOR AV. 4777;9;INICIAL;ESTATAL;COMUN;GESTION INTEGRAL DE RESIDUOS - HUERTA ESCOLAR;RATIFICO EN 2017;PALERMO;COMUNA 14;LAZO AMBIENTAL 2015: 2
-58.438906536832661;-34.655622552609373;59;JII N°13 D.E. 19;2;JII 13;AVDA. FERNANDEZ DE LA CRUZ 2615;FERNANDEZ DE LA CRUZ, F., GRAL. AV. 2615;19;INICIAL;ESTATAL;COMUN;CUIDADO DEL AGUA - GESTION INTEGRAL DE LOS RESIDUOS;SE POSTULO EN 2017;VILLA SOLDATI;COMUNA 08;
-58.414654220512894;-34.596932025668089;83;JII N° 4 D.E. 2;2;JII N°4;JOSE ANTONIO CABRERA 3430;CABRERA, JOSE A. 3430;2;INICIAL;ESTATAL;COMUN;GESTION INTEGRAL DE LOS RESIDUOS - CUIDADO DEL AGUA;SE POSTULO EN 2017;RECOLETA;COMUNA 02;
-58.397294168816785;-34.622991617174641;141;JIN A  N°25 DE 3;3;JIN A;AVDA. SAN JUAN 2277;SAN JUAN AV. 2277;3;INICIAL;ESTATAL;COMUN;GESTION INTEGRAL DE RESIDUOS - HUERTA ESCOLAR - GESTION DE RECURSO HIDRICO - CAMBIO CLIMATICO & MEDICION DE LA HUELLA DE CARBONO - VIDA SALUDABLE;POSTULADOS ANTES DE 2017;SAN CRISTOBAL;COMUNA 03;
-58.443347296709753;-34.569385465680547;55;JIN A D.E. 9;2;JIN A;OLLEROS 2315;OLLEROS 2315;9;INICIAL;ESTATAL;COMUN;CUIDADO DEL AGUA - GESTION INTEGRAL DE LOS RESIDUOS;SE POSTULO EN 2017;PALERMO;COMUNA 14;
-58.430203565718969;-34.622318602398011;117;J.I.N A N° 11  D.E. 08;3;J.I.N A 11;AVDA. JUAN BAUTISTA ALBERDI 163;ALBERDI, JUAN BAUTISTA AV. 163;8;INICIAL;ESTATAL;COMUN;GESTION INTEGRAL DE RESIDUOS - GESTION DE RECURSO HIDRICO - EFICIENCIA ENERGETICA Y ENERGIAS RENOVABLES - PARTICIPACION CIUDADANA;POSTULADOS ANTES DE 2017;CABALLITO;COMUNA 06;LAZO AMBIENTAL 2015: 1
-58.438847675007999;-34.583873660243697;147;JIN B DE 9;3;JIN B;GORRITI 5744;GORRITI 5744;9;INICIAL;ESTATAL;COMUN;GESTION INTEGRAL DE RESIDUOS - HUERTA ESCOLAR - ALIMENTACION SALUDABLE;POSTULADOS ANTES DE 2017;PALERMO;COMUNA 14;
-58.511979578722368;-34.64236655827527;69;JIN B D.E. 20;2;JIN B;FONROUGE 370;FONROUGE 370;20;INICIAL;ESTATAL;COMUN;GESTION INTEGRAL DE LOS RESIDUOS;SE POSTULO EN 2017;LINIERS;COMUNA 09;
-58.411308101511985;-34.600327110059325;140;JIN B DE 2;3;JIN B;SAN LUIS 3224;SAN LUIS 3224;2;INICIAL;ESTATAL;COMUN;BIODIVERSIDAD & ESPACIOS VERDES - GESTION INTEGRAL DE RESIDUOS;POSTULADOS ANTES DE 2017;BALVANERA;COMUNA 03;
-58.432267787885976;-34.646422965559438;155;"J.I.N. ""B""  D.E. 19";3;JIN B;MOM 2358;MOM 2380;19;INICIAL;ESTATAL;COMUN;GESTION INTEGRAL DE RESIDUOS - HUERTA ESCOLAR - PARTICIPACION CIUDADANA - VIDA SALUDABLE;POSTULADOS ANTES DE 2017;NUEVA POMPEYA;COMUNA 04;
-58.398636574415448;-34.606153755270356;138;"J.I.N. ""B"" N° 14  D.E. 1";3;JIN B;SARMIENTO 2250;LAVALLE 2366;1;INICIAL;ESTATAL;COMUN;GESTION INTEGRAL DE RESIDUOS - VIDA SALUDABLE. AGUA;POSTULADOS ANTES DE 2017;BALVANERA;COMUNA 03;
-58.405312044004418;-34.583720424190645;139;"J.I.N. ""C""  N° 21 D.E. 1";2;JIN C 1, 18 Y 21;AVDA. GRAL. LAS HERAS 3086;LAS HERAS GENERAL AV. 3086;1;INICIAL;ESTATAL;COMUN;HUERTAS ESCOLARES, BIODIVERSIDAD & ESPACIOS VERDES/ GESTION INTEGRAL DE RESIDUOS;POSTULADOS ANTES DE 2017;RECOLETA;COMUNA 02;
-58.47783342768642;-34.682908483075089;31;JIN C D.E. 21 (ESC. PRIM. N° 14 DE 21);1;JIN C 14 Y 13;CAÑADA DE GOMEZ 4548;CAÑADA DE GOMEZ 4548;21;INICIAL;ESTATAL;COMUN;EFICIENCIA ENERGETICA Y ENERGIAS RENOVABLES - CUIDADO DEL AGUA - GESTION INTEGRAL DE LOS RESIDUOS;SE POSTULO EN 2017;VILLA LUGANO;COMUNA 08;
-58.490862642175884;-34.619631344555749;121;J.I.N. C D.E. 12;3;JIN C 11;BAHIA BLANCA 1551;BELAUSTEGUI, LUIS, DR. 3751;12;INICIAL;ESTATAL;COMUN;GESTION INTEGRAL DE RESIDUOS - HUERTA ESCOLAR;POSTULADOS ANTES DE 2017;FLORESTA;COMUNA 10;LAZO AMBIENTAL 2015: 1
-58.514745032570019;-34.607832084649623;122;JIN D D.E. 17;3;JIN D;AVDA. FRANCISCO BEIRO 4552;BEIRO, FRANCISCO AV. 4552;17;INICIAL;ESTATAL;COMUN;GESTION INTEGRAL DE RESIDUOS;POSTULADOS ANTES DE 2017;VILLA DEVOTO;COMUNA 11;LAZO AMBIENTAL 2015: 1
-58.470657045898335;-34.552120775877029;87;LA ALDEA - NIVEL INICIAL;2;A 848;NUÑEZ 2776;NUÑEZ 2776;10;INICIAL;PRIVADA;COMUN;GESTION INTEGRAL DE RESIDUOS - HUERTAS - BIODIVERSIDAD;SE POSTULO EN 2017;NUÑEZ;COMUNA 13;
-58.425402004758865;-34.583041560540821;56;JII N° 1 D.E. 9 ALFREDO PALACIOS;1;JII 1;URIARTE 2237;URIARTE 2237;9;INICIAL;ESTATAL;COMUN;CUIDADO DEL AGUA - GESTION INTEGRAL DE LOS RESIDUOS - HUERTAS ESCOLARES;SE POSTULO EN 2017;PALERMO;COMUNA 14;
-58.440098317695963;-34.551711917488504;200;LICEO FRANCO ARGENTINO JEAN MERMOZ - NIVEL SECUNDARIO - A 670;2;A-670;RAMSAY 2131;RAMSAY 2131;10;SECUNDARIO;PRIVADA;COMUN;GESTION INTEGRAL DE RESIDUOS - BIODIVERSIDAD & ESPACIOS VERDES - PARTICIPACION CIUDADANA - VIDA SALUDABLE;POSTULADOS ANTES DE 2017;BELGRANO;COMUNA 13;LAZO AMBIENTAL 2015: 1
-58.426542508561717;-34.615115355592827;145;JII 2 DE 8;3;JII 2;HIPOLITO YRIGOYEN 4238;YRIGOYEN, HIPOLITO AV. 4238;8;INICIAL;ESTATAL;COMUN;GESTION INTEGRAL DE RESIDUOS - HUERTA ESCOLAR - PARTICIPACION CIUDADANA - ALIMENTACION SALUDABLE;POSTULADOS ANTES DE 2017;ALMAGRO;COMUNA 05;
-58.360888525709875;-34.638912282774669;93;EPC N° 9 D.E. 4;2;EPC 9;AV DON PEDRO DE MENDOZA 1835;DON PEDRO DE MENDOZA AV. 1835;4;PRIMARIA;ESTATAL;COMUN;CUIDADO DEL AGUA - GESTION INTEGRAL DE LOS RESIDUOS - HUERTAS ESCOLARES;SE POSTULO EN 2017;BOCA;COMUNA 04;
-58.397436605394596;-34.607113198329053;228;ASOC. ESCUELA CANGALLO - CANGALLO SCHULE A 174 - SECUNDARIA;2;A - 174;TTE. GRAL. JUAN DOMINGO PERUN 2169;PERON, JUAN DOMINGO, TTE. GENERAL 2169;1;SECUNDARIA;PRIVADA;COMUN;GESTION INTEGRAL DE RESIDUOS;POSTULADOS ANTES DE 2017;BALVANERA;COMUNA 03;
-58.403200358925531;-34.580087247235227;212;COLEGIO SAN MARTIN DE TOURS  - A 637 - NIVEL PRIMARIO;3;A 637;AVDA. ORTIZ DE OCAMPO 2840;ORTIZ DE OCAMPO AV. 2840;1;PRIMARIA;PRIVADA;COMUN;GESTION INTEGRAL DE RESIDUOS - GESTION DE RECURSO HIDRICO - EFICIENCIA ENERGETICA Y ENERGIAS RENOVABLES - VIDA SALUDABLE;POSTULADOS ANTES DE 2017;PALERMO;COMUNA 14;
-58.469112474998717;-34.643360501161425;161;EPC N° 11 DE 11;2;EPC 11;GREGORIO DE LAFERRERE 3624;LAFERRERE, GREGORIO DE 3624;11;PRIMARIA;ESTATAL;COMUN;GESTION INTEGRAL DE RESIDUOS - HUERTA ESCOLAR;RATIFICO EN 2017;PARQUE AVELLANEDA;COMUNA 09;
-58.478305184344279;-34.543851212993602;192;INSTITUTO DIVINA PROVIDENCIA - NIVEL PRIMARIO - A 301;2;A - 301;ARIAS 2915;ARIAS 2915;10;PRIMARIA;PRIVADA;COMUN;GESTION INTEGRAL DE RESIDUOS;POSTULADOS ANTES DE 2017;SAAVEDRA;COMUNA 12;LAZO AMBIENTAL 2015: 1
-58.496076512107372;-34.599501115876699;236;INSTITUTO EVANGELICO AMERICANO - A 36 - SECUNDARIA;2;A 36;SIMBRON 3160;SIMBRON 3160;17;SECUNDARIA;PRIVADA;COMUN;GESTION INTEGRAL DE RESIDUOS;POSTULADOS ANTES DE 2017;VILLA DEL PARQUE;COMUNA 11;
-58.415473773993497;-34.636831898531902;20;INSTITUTO SAN BARTOLOME -  NIVEL INICIAL;1;A 421;AV CHICLANA 3659;CHICLANA AV. 3659;6;INICIAL;PRIVADA;COMUN;GESTION INTEGRAL DE RESIDUOS;SE POSTULO EN 2017;BOEDO;COMUNA 05;
-58.43075306230697;-34.576589560643342;119;JII N°  06 D.E. 09;3;JII 6;AVDA. SANTA FE 5039;SANTA FE AV. 5039;9;INICIAL;ESTATAL;COMUN;HUERTA ESCOLAR - BIODIVERSIDAD & ESPACIOS VERDES - VIDA SALUDABLE - GESTION INTEGRAL DE RESIDUOS;RATIFICO EN 2017;PALERMO;COMUNA 14;LAZO AMBIENTAL 2014: 1 - LAZO AMBIENTAL 2015: 2
-58.473185292426507;-34.607204169229973;120;"JIN ""B"" D.E. 12";4;JIN B;CARACAS 2057;DIAZ, CESAR, GRAL. 3050;12;INICIAL;ESTATAL;COMUN;GESTION INTEGRAL DE RESIDUOS - MOVILIDAD SUSTENTABLE-HUERTA ESCOLAR - BIODIVERSIDAD & ESPACIOS VERDES - EFICIENCIA ENERGETICA Y ENERGIAS RENOVABLES;POSTULADOS ANTES DE 2017;VILLA SANTA RITA;COMUNA 11;LAZO AMBIENTAL 2014: 2 - LAZO AMBIENTAL 2015: 3
-58.361392557731428;-34.638547129449499;90;JII N° 01 D.E. 04;2;JII 1;GRAL. GREGORIO ARAOZ DE LAMADRID 648;ARAOZ DE LAMADRID, GREGORIO, GRAL. 648;4;INICIAL;ESTATAL;COMUN;INDAGACION DEL AMBIENTE SOCIAL Y NATURAL. LA EXPRESION Y LA COMUNICACION. LA EDUCACION SOCIAL, AFECTIVA Y MORAL DE LOS NIÑOS.;SE POSTULO EN 2017;BOCA;COMUNA 04;
-58.505110922923969;-34.653123388022671;173;LICEO N°  08  DE 13;1;LIC 08;MURGUIONDO 1568;MURGUIONDO 1568;13;SECUNDARIA;ESTATAL;COMUN;GESTION INTEGRAL DE RESIDUOS;RATIFICO EN 2017;MATADEROS;COMUNA 09;
-58.374570737106446;-34.616747111925804;196;LUIS A. HUERGO - NIVEL SECUNDARIO - A 117;4;A - 117;PERU 759;PERU 759;3;SECUNDARIA;PRIVADA;TECNICA;GESTION INTEGRAL DE RESIDUOS - BIODIVERSIDAD & ESPACIOS VERDES - GESTION DE RECURSO HIDRICO - EFICIENCIA ENERGETICA Y ENERGIAS RENOVABLES - CAMBIO CLIMATICO & MEDICION DE LA HUELLA DE CARBONO - PARTICIPACION CIUDADANA;POSTULADOS ANTES DE 2017;SAN TELMO;COMUNA 01;LAZO AMBIENTAL 2015: 2
-58.458839818227517;-34.566383495665768;72;NUEVA ESCUELA ARGENTINA 2000 - NIVEL INICIAL;2;A 635;SUCRE 2824;SUCRE, ANTONIO JOSE DE, MCAL. 2824;10;INICIAL;PRIVADA;COMUN;GESTION INTEGRAL DE RESIDUOS - HUERTA - BIODIVERSIDAD;SE POSTULO EN 2017;BELGRANO;COMUNA 13;
-58.414698200383945;-34.609076288871108;238;INSTITUTO TIERRA SANTA - A 407 - NIVEL PRIMARIO;3;A 407;SANCHEZ DE BUSTAMANTE 124;SANCHEZ DE BUSTAMANTE 124;2;PRIMARIO;PRIVADA;COMUN;GESTION INTEGRAL DE RESIDUOS GESTION INTEGRAL DE RECURSO HIDRICO EFICIENCIA ENERGETICA Y ENERGIAS;POSTULADOS ANTES DE 2017;ALMAGRO;COMUNA 05;
-58.403100947492923;-34.580196530798993;237;COLEGIO SAN MARTIN DE TOURS (MUJERES) - A 637 - NIVEL INICIAL;3;A 637;ORTIZ DE OCAMPO 2840;ORTIZ DE OCAMPO AV. 2840;1;INICIAL;PRIVADA;COMUN;GESTION INTEGRAL DE RESIDUOS;;PALERMO;COMUNA 14;
-58.428254913957318;-34.615167017209572;240;INSTITUTO SAGRADO CORAZON (CABALLITO) - A - 111 - NIVEL PRIMARIO;1;A - 111;HIPOLITO YRIGOYEN 4350;YRIGOYEN, HIPOLITO AV. 4350;8;PRIMARIO;PRIVADA;COMUN;GESTION INTEGRAL DE RESIDUOS, MOVILIDAD SUSTENTABLE, HUERTAS ESCOLARES, BIODIVERSIDAD & ESPACIOS VERDES, GESTION DE RECURSO HIDRICO, PARTICIPACION CIUDADANA, VIDA SALUDABLE;;ALMAGRO;COMUNA 05;
-58.442579445498318;-34.627946672823626;242;INSTITUTO SAINT EXUPERY - A 939 - NIVEL PRIMARIO;3;A - 939;JOSE BONIFACIO 1075;BONIFACIO, JOSE 1075;8;PRIMARIO;PRIVADA;COMUN;GESTION INTEGRAL DE RESIDUOS, HUERTAS ESCOLARES, BIODIVERSIDAD & ESPACIOS VERDES, CAMBIO CLIMATICO & MEDICION DE LA HUELLA DE CARBONO, PARTICIPACION CIUDADANA, VIDA SALUDABLE;;CABALLITO;COMUNA 06;
-58.464545443832421;-34.631749907685766;246;INSTITUTO ANA MARIA JANER A-1 INICIAL;2;A-1;VARELA 182;VARELA 182;11;INICIAL;PRIVADA;COMUN;GESTION INTEGRAL DE RESIDUOS;;FLORES;COMUNA 07;
-58.464303786165495;-34.631992382027562;247;INSTITUTO ANA MARIA JANER - PRIMARIA;2;;AV. J. B. ALBERDI 2595;ALBERDI, JUAN BAUTISTA AV. 2595;11;PRIMARIA;PRIVADA;COMUN;GESTION INTEGRAL DE RESIDUOS;;FLORES;COMUNA 07;
-58.405420795354658;-34.595254465815991;250;CCI - SCUOLA EDMONDO DE AMICIS - INCIAL;1;;DR. NORBERTO QUIRNO COSTA 1260;QUIRNO COSTA, NORBERTO, DR. 1260;2;INICIAL;PRIVADA;COMUN;GESTION INTEGRAL DE RESIDUOS;;RECOLETA;COMUNA 02;
-58.415464338379273;-34.636948031775582;251;INSTITUTO SAN BARTOLOME - A-421;1;- A421  -;AV CHICLANA 3659;CHICLANA AV. 3659;6;INICIAL;PRIVADA;COMUN;GESTION INTEGRAL DE RESIDUOS;;BOEDO;COMUNA 05;
-58.429074764508336;-34.610006552779353;252;ESCUELA ORT - YATAY - A 531;3;- A 531 -;YATAY 240;YATAY 240;7;SECUNDARIO;PRIVADA;COMUN;GESTION INTEGRAL DE RESIDUOS, GESTION DE RECURSO HIDRICO, BIODIVERSIDAD & ESPACIOS VERDES, AGUA, VIDA SALUDABLE;;ALMAGRO;COMUNA 05;
-58.44076066620697;-34.551160272912753;258;ESCUELA ITALIANA CRISTOFORO COLOMBO - A 397 - NIVEL PRIMARIA;2;- A 397 -;RAMSAY 2250;RAMSAY 2250;10;PRIMARIA;PRIVADA;COMUN;GESTION INTEGRAL DE RESIDUOS, EFICIENCIA ENERGETICA Y ENERGIAS RENOVABLES, PARTICIPACION CIUDADANA,VIDA SALUDABLE;;BELGRANO;COMUNA 13;
-58.482001414674038;-34.629723835665438;259;INSTITUTO ADELIA MARIA HARILAOS DE OLMOS - SECUNDARIA;1;;BAHIA BLANCA 363;BAHIA BLANCA 363;12;SECUNDARIA;PRIVADA;COMUN;GESTION INTEGRAL DE RESIDUOS;;FLORESTA;COMUNA 10;
-58.476191342648157;-34.589863189250707;260;INSTITUTO EDUCACIONAL SANTA TERESITA A 622 DE 14;2;- A 622 -;QUIROS 2941;QUIROS 2941;14;PRIMARIA;PRIVADA;COMUN;GESTION INTEGRAL DE RESIDUOS, AGUA, PARTICIPACION CIUDADANA;;PARQUE CHAS;COMUNA 15;
-58.525210630899537;-34.621719112199422;262;ESCUELA CRISTIANA EVANGELICA ARGENTINA - A 474 - INICIAL;3;- A 474 -;IRIGOYEN 2150;IRIGOYEN 2150;17;INICIAL;PRIVADA;COMUN;GESTION INTEGRAL DE RESIDUOS, CONSUMO RESPONSABLE, REUTILIZACION CREATIVA;;VILLA REAL;COMUNA 10;
-58.436075391461443;-34.601844202143965;253;INSTITUTO EDUCATIVO ALAS - INICIAL;1;;LAVALLEJA 250;LAVALLEJA 250;2;INICIAL;PRIVADA;COMUN;GESTION INTEGRAL DE RESIDUOS;SE POSTULO EN 2017;VILLA CRESPO;COMUNA 15;
-58.414818127226283;-34.609081744644747;239;INSTITUTO TIERRA SANTA - A 407 - NIVEL INICIAL;3;A 407;SANCHEZ DE BUSTAMANTE 124;SANCHEZ DE BUSTAMANTE 124;2;INICIAL;PRIVADA;COMUN;GESTION INTEGRAL DE RESIDUOS GESTION INTEGRAL DE RECURSO HIDRICO EFICIENCIA ENERGETICA Y ENERGIAS RENOVABLES PARTICIPACION CIUDADANA;;ALMAGRO;COMUNA 05;
-58.405523092567833;-34.611835890838798;132;LICEO N°  10 D.E. 06;4;LIC 10;AVDA. JUJUY 150;JUJUY AV. 150;6;SECUNDARIA;ESTATAL;COMUN;GESTION INTEGRAL DE RESIDUOS - MOVILIDAD SUSTENTABLE - HUERTA ESCOLAR - BIODIVERSIDAD & ESPACIOS VERDES - GESTION DE RECURSO HIDRICO - CAMBIO CLIMATICO & MEDICION DE LA HUELLA DE CARBONO - PARTICIPACION CIUDADANA - VIDA SALUDABLE - RESPONSABILIDAD;POSTULADOS ANTES DE 2017;BALVANERA;COMUNA 03;LAZO AMBIENTAL 2015: 2
